ONEWEB-0037             
1 45440U 20020S   24081.51765032  .00000177  00000+0  46405-3 0  9991
2 45440  87.9033 183.6159 0002099 101.8695 258.2669 13.11416383195523
ONEWEB-0042             
1 45441U 20020T   24081.52563044 -.00000178  00000+0 -53930-3 0  9996
2 45441  87.9037 183.6400 0001880 100.8441 259.2898 13.11415306195497
ONEWEB-0098             
1 45442U 20020U   24081.51927280  .00000139  00000+0  35713-3 0  9996
2 45442  87.9037 183.6507 0001731 107.8355 252.2961 13.11415853195471
ONEWEB-0055             
1 45443U 20020V   24081.58341357  .00000547  00000+0  15085-2 0  9991
2 45443  87.9039 183.6415 0001719 106.2985 253.8332 13.11416205195459
ONEWEB-0093             
1 45444U 20020W   24081.55661388 -.00000131  00000+0 -40673-3 0  9991
2 45444  87.9043 183.6263 0001580 101.1238 259.0068 13.11418577195512
ONEWEB-0029             
1 45445U 20020X   24081.57610211  .00000573  00000+0  15800-2 0  9994
2 45445  87.9040 183.6364 0001948  98.2668 261.8681 13.11416892195490
ONEWEB-0068             
1 45446U 20020Y   24081.55092227 -.00000385  00000+0 -11223-2 0  9992
2 45446  87.9042 183.6262 0001733 100.6067 259.5257 13.11418052195430
ONEWEB-0046             
1 45447U 20020Z   24081.54848794 -.00000399  00000+0 -11614-2 0  9999
2 45447  87.9040 183.6389 0002216 102.1372 258.0005 13.11418129195443
